NORAD_CAT_ID,OBJECT_NAME,OBJECT_TYPE,EPOCH,MEAN_MOTION,ECCENTRICITY,INCLINATION,RA_OF_ASC_NODE,ARG_OF_PERICENTER,MEAN_ANOMALY,BSTAR,MEAN_MOTION_DOT,MEAN_MOTION_DDOT,TLE_LINE0,TLE_LINE1,TLE_LINE2,SEMIMAJOR_AXIS,PERIOD,APOGEE,PERIGEE,DECAYED
55436.0,STARLINK-5640,PAYLOAD,2024-06-13 12:15:34,14.98338131,0.0003442,70.0004,263.4913,269.9812,90.0953,0.0002855,3.316e-05,0.0,0 STARLINK-5640,1 55436U 23014AX  24165.51082058  .00003316  00000-0  28550-3 0  9996,2 55436  70.0004 263.4913 0003442 269.9812  90.0953 14.98338131 75137,6950.168,96.106,574.425,569.64,0.0
55436.0,STARLINK-5640,PAYLOAD,2024-06-13 13:51:42,14.98340227,0.0003478,70.0002,263.3228,270.4961,89.58,0.00032892,3.835e-05,0.0,0 STARLINK-5640,1 55436U 23014AX  24165.57757965  .00003835  00000-0  32892-3 0  9998,2 55436  70.0002 263.3228 0003478 270.4961  89.5800 14.98340227 76082,6950.161,96.106,574.444,569.609,0.0
55436.0,STARLINK-5640,PAYLOAD,2024-06-13 15:27:50,14.98342829,0.0003479,70.0002,263.1546,270.0567,90.0193,0.00039672,4.645e-05,0.0,0 STARLINK-5640,1 55436U 23014AX  24165.64433851  .00004645  00000-0  39672-3 0  9994,2 55436  70.0002 263.1546 0003479 270.0567  90.0193 14.98342829 76095,6950.153,96.106,574.436,569.6,0.0
55436.0,STARLINK-5640,PAYLOAD,2024-06-14 13:53:43,14.98332825,0.0003202,70.0009,260.7991,267.3261,92.7531,0.00013565,1.526e-05,0.0,0 STARLINK-5640,1 55436U 23014AX  24166.57898147  .00001526  00000-0  13565-3 0  9998,2 55436  70.0009 260.7991 0003202 267.3261  92.7531 14.98332825 76239,6950.184,96.107,574.275,569.824,0.0
55436.0,STARLINK-5640,PAYLOAD,2024-06-14 15:29:52,14.98333974,0.0003193,70.0009,260.6308,267.6616,92.4178,0.00015343,1.738e-05,0.0,0 STARLINK-5640,1 55436U 23014AX  24166.64574094  .00001738  00000-0  15343-3 0  9999,2 55436  70.0009 260.6308 0003193 267.6616  92.4178 14.98333974 76247,6950.181,96.107,574.265,569.826,0.0
55436.0,STARLINK-5640,PAYLOAD,2024-06-15 13:55:44,14.9833942,0.0003186,70.0007,258.2743,269.0701,91.0093,0.00012559,1.406e-05,0.0,0 STARLINK-5640,1 55436U 23014AX  24167.58037578  .00001406  00000-0  12559-3 0  9992,2 55436  70.0007 258.2743 0003186 269.0701  91.0093 14.98339420 76382,6950.164,96.106,574.243,569.814,0.0
55436.0,STARLINK-5640,PAYLOAD,2024-06-15 15:31:52,14.98341145,0.0003155,69.9997,258.106,268.4475,91.6323,0.00012562,1.407e-05,0.0,0 STARLINK-5640,1 55436U 23014AX  24167.64713492  .00001407  00000-0  12562-3 0  9990,2 55436  69.9997 258.1060 0003155 268.4475  91.6323 14.98341145 76395,6950.158,96.106,574.216,569.831,0.0
55436.0,STARLINK-5640,PAYLOAD,2024-06-16 13:57:45,14.98333765,0.0003264,69.9993,255.7491,269.428,90.6505,0.00010971,1.216e-05,0.0,0 STARLINK-5640,1 55436U 23014AX  24168.58177744  .00001216  00000-0  10971-3 0  9998,2 55436  69.9993 255.7491 0003264 269.4280  90.6505 14.98333765 76534,6950.181,96.107,574.315,569.778,0.0
55436.0,STARLINK-5640,PAYLOAD,2024-06-16 15:33:53,14.98334821,0.0003262,69.9993,255.5808,269.5132,90.5654,0.0001177,1.312e-05,0.0,0 STARLINK-5640,1 55436U 23014AX  24168.64853637  .00001312  00000-0  11770-3 0  9992,2 55436  69.9993 255.5808 0003262 269.5132  90.5654 14.98334821 76548,6950.178,96.107,574.31,569.776,0.0
55436.0,STARLINK-5640,PAYLOAD,2024-06-17 12:23:38,14.98330644,0.0003215,69.9994,253.3915,268.4002,91.6788,-2.4007e-05,-3.79e-06,0.0,0 STARLINK-5640,1 55436U 23014AX  24169.51641961 -.00000379  00000-0 -24007-4 0  9996,2 55436  69.9994 253.3915 0003215 268.4002  91.6788 14.98330644 75735,6950.191,96.107,574.29,569.821,0.0
55436.0,STARLINK-5640,PAYLOAD,2024-06-18 12:25:39,14.98332844,0.0003286,69.9992,250.8669,268.3697,91.7085,6.3465e-05,6.64e-06,0.0,0 STARLINK-5640,1 55436U 23014AX  24170.51781613  .00000664  00000-0  63465-4 0  9993,2 55436  69.9992 250.8669 0003286 268.3697  91.7085 14.98332844 75889,6950.184,96.107,574.333,569.765,0.0
55436.0,STARLINK-5640,PAYLOAD,2024-06-18 14:01:47,14.98332479,0.0003322,69.9991,250.6987,268.3492,91.7286,5.507e-05,5.64e-06,0.0,0 STARLINK-5640,1 55436U 23014AX  24170.58457647  .00000564  00000-0  55070-4 0  9999,2 55436  69.9991 250.6987 0003322 268.3492  91.7286 14.98332479 76836,6950.185,96.107,574.359,569.741,0.0
55436.0,STARLINK-5640,PAYLOAD,2024-06-18 22:02:27,14.98330314,0.000329,69.9992,249.857,268.6134,91.4648,3.5335e-05,3.29e-06,0.0,0 STARLINK-5640,1 55436U 23014AX  24170.91837822  .00000329  00000-0  35335-4 0  9994,2 55436  69.9992 249.8570 0003290 268.6134  91.4648 14.98330314 76885,6950.192,96.107,574.344,569.77,0.0
55436.0,STARLINK-5640,PAYLOAD,2024-06-19 12:27:40,14.9832817,0.0003316,69.999,248.3423,268.062,92.016,9.4113e-05,1.03e-05,0.0,0 STARLINK-5640,1 55436U 23014AX  24171.51921875  .00001030  00000-0  94113-4 0  9992,2 55436  69.9990 248.3423 0003316 268.0620  92.0160 14.98328170 76037,6950.199,96.107,574.368,569.759,0.0
55436.0,STARLINK-5640,PAYLOAD,2024-06-19 14:03:48,14.98328918,0.0003304,69.999,248.174,267.9555,92.1226,0.00010111,1.114e-05,0.0,0 STARLINK-5640,1 55436U 23014AX  24171.58597819  .00001114  00000-0  10111-3 0  9994,2 55436  69.9990 248.1740 0003304 267.9555  92.1226 14.98328918 76987,6950.196,96.107,574.358,569.765,0.0
55436.0,STARLINK-5640,PAYLOAD,2024-06-19 15:39:56,14.98329487,0.0003303,69.999,248.0057,267.926,92.1521,0.00010583,1.17e-05,0.0,0 STARLINK-5640,1 55436U 23014AX  24171.65273779  .00001170  00000-0  10583-3 0  9993,2 55436  69.9990 248.0057 0003303 267.9260  92.1521 14.98329487 76990,6950.194,96.107,574.355,569.764,0.0
55436.0,STARLINK-5640,PAYLOAD,2024-06-20 14:05:49,14.98332414,0.0003276,69.999,245.6492,267.8256,92.2528,3.9139e-05,3.74e-06,0.0,0 STARLINK-5640,1 55436U 23014AX  24172.58737739  .00000374  00000-0  39139-4 0  9991,2 55436  69.9990 245.6492 0003276 267.8256  92.2528 14.98332414 77138,6950.185,96.107,574.327,569.774,0.0
55436.0,STARLINK-5640,PAYLOAD,2024-06-20 15:41:57,14.98333324,0.0003276,69.999,245.4809,267.7627,92.3157,4.7708e-05,4.76e-06,0.0,0 STARLINK-5640,1 55436U 23014AX  24172.65413648  .00000476  00000-0  47708-4 0  9993,2 55436  69.9990 245.4809 0003276 267.7627  92.3157 14.98333324 76206,6950.183,96.107,574.324,569.771,0.0
55436.0,STARLINK-5640,PAYLOAD,2024-06-21 14:07:50,14.98332401,0.0003303,69.999,243.1245,268.8281,91.2499,4.5729e-05,4.53e-06,0.0,0 STARLINK-5640,1 55436U 23014AX  24173.58877662  .00000453  00000-0  45729-4 0  9992,2 55436  69.9990 243.1245 0003303 268.8281  91.2499 14.98332401 77285,6950.185,96.107,574.346,569.755,0.0
55436.0,STARLINK-5640,PAYLOAD,2024-06-22 12:33:43,14.9832795,0.0003338,69.9989,240.7678,268.7223,91.3553,-1.8551e-06,-1.15e-06,0.0,0 STARLINK-5640,1 55436U 23014AX  24174.52342091 -.00000115  00000-0 -18551-5 0  9991,2 55436  69.9989 240.7678 0003338 268.7223  91.3553 14.98327950 76485,6950.199,96.107,574.384,569.744,0.0
55436.0,STARLINK-5640,PAYLOAD,2024-06-22 14:09:51,14.98328557,0.0003335,69.9989,240.5995,268.7341,91.3436,4.7198e-06,-3.7e-07,0.0,0 STARLINK-5640,1 55436U 23014AX  24174.59018040 -.00000037  00000-0  47198-5 0  9993,2 55436  69.9989 240.5995 0003335 268.7341  91.3436 14.98328557 77433,6950.197,96.107,574.38,569.744,0.0
55436.0,STARLINK-5640,PAYLOAD,2024-06-23 12:35:43,14.98333833,0.0003396,69.9988,238.2425,266.7724,93.3046,6.5997e-05,6.95e-06,0.0,0 STARLINK-5640,1 55436U 23014AX  24175.52481425  .00000695  00000-0  65997-4 0  9993,2 55436  69.9988 238.2425 0003396 266.7724  93.3046 14.98333833 76637,6950.181,96.107,574.406,569.686,0.0
55436.0,STARLINK-5640,PAYLOAD,2024-06-23 14:11:51,14.98334289,0.00034,69.9988,238.0743,266.9449,93.1321,6.9944e-05,7.42e-06,0.0,0 STARLINK-5640,1 55436U 23014AX  24175.59157373  .00000742  00000-0  69944-4 0  9991,2 55436  69.9988 238.0743 0003400 266.9449  93.1321 14.98334289 77585,6950.18,96.107,574.408,569.682,0.0
55436.0,STARLINK-5640,PAYLOAD,2024-06-24 12:37:44,14.9833416,0.0003506,69.9987,235.7171,267.4825,92.5933,8.511e-05,9.23e-06,0.0,0 STARLINK-5640,1 55436U 23014AX  24176.52621139  .00000923  00000-0  85110-4 0  9995,2 55436  69.9987 235.7171 0003506 267.4825  92.5933 14.98334160 76785,6950.18,96.107,574.482,569.608,0.0
55436.0,STARLINK-5640,PAYLOAD,2024-06-24 14:13:52,14.9833517,0.0003507,69.9987,235.5489,267.7245,92.3513,9.4292e-05,1.032e-05,0.0,0 STARLINK-5640,1 55436U 23014AX  24176.59297034  .00001032  00000-0  94292-4 0  9998,2 55436  69.9987 235.5489 0003507 267.7245  92.3513 14.98335170 77735,6950.177,96.107,574.479,569.604,0.0
55436.0,STARLINK-5640,PAYLOAD,2024-06-25 04:39:05,14.98330039,0.0003287,69.9993,234.0342,266.3532,93.7251,-4.2674e-06,-1.44e-06,0.0,0 STARLINK-5640,1 55436U 23014AX  24177.19381539 -.00000144  00000-0 -42674-5 0  9992,2 55436  69.9993 234.0342 0003287 266.3532  93.7251 14.98330039 76881,6950.193,96.107,574.342,569.773,0.0
55436.0,STARLINK-5640,PAYLOAD,2024-06-25 14:15:54,14.98328544,0.0003336,69.9993,233.0245,266.6259,93.4518,-2.6272e-05,-4.07e-06,0.0,0 STARLINK-5640,1 55436U 23014AX  24177.59437687 -.00000407  00000-0 -26272-4 0  9999,2 55436  69.9993 233.0245 0003336 266.6259  93.4518 14.98328544 77888,6950.197,96.107,574.381,569.744,0.0
55436.0,STARLINK-5640,PAYLOAD,2024-06-26 04:41:06,14.98334899,0.0003421,69.9993,231.5095,267.6232,92.4535,3.284e-05,2.99e-06,0.0,0 STARLINK-5640,1 55436U 23014AX  24178.19521020  .00000299  00000-0  32840-4 0  9996,2 55436  69.9993 231.5095 0003421 267.6232  92.4535 14.98334899 77036,6950.178,96.107,574.42,569.665,0.0
55436.0,STARLINK-5640,PAYLOAD,2024-06-26 11:05:38,14.98335112,0.0003424,69.9993,230.8363,266.2312,93.8455,3.3917e-05,3.12e-06,0.0,0 STARLINK-5640,1 55436U 23014AX  24178.46224920  .00000312  00000-0  33917-4 0  9997,2 55436  69.9993 230.8363 0003424 266.2312  93.8455 14.98335112 78017,6950.177,96.107,574.422,569.662,0.0
55436.0,STARLINK-5640,PAYLOAD,2024-06-27 04:43:07,14.98328424,0.0003525,69.9988,228.9841,265.4446,94.631,6.082e-05,6.33e-06,0.0,0 STARLINK-5640,1 55436U 23014AX  24179.19661246  .00000633  00000-0  60820-4 0  9993,2 55436  69.9988 228.9841 0003525 265.4446  94.6310 14.98328424 77185,6950.198,96.107,574.513,569.613,0.0
